[{"OBJECT_NAME":"HORS 2","OBJECT_ID":"2023-091AG","EPOCH":"2026-03-09T22:11:34.810944","MEAN_MOTION":15.2928008,"ECCENTRICITY":0.00098173,"INCLINATION":97.5195,"RA_OF_ASC_NODE":134.7443,"ARG_OF_PERICENTER":79.3164,"MEAN_ANOMALY":280.9181,"EPHEMERIS_TYPE":0,"CLASSIFICATION_TYPE":"U","NORAD_CAT_ID":57196,"ELEMENT_SET_NO":999,"REV_AT_EPOCH":14934,"BSTAR":0.00059338338,"MEAN_MOTION_DOT":0.00016821,"MEAN_MOTION_DDOT":0},{"OBJECT_NAME":"STARLINK-31370","OBJECT_ID":"2024-073K","EPOCH":"2026-03-09T00:54:37.681632","MEAN_MOTION":15.27574936,"ECCENTRICITY":7.163e-5,"INCLINATION":43.0011,"RA_OF_ASC_NODE":321.9034,"ARG_OF_PERICENTER":322.731,"MEAN_ANOMALY":37.3491,"EPHEMERIS_TYPE":0,"CLASSIFICATION_TYPE":"U","NORAD_CAT_ID":59520,"ELEMENT_SET_NO":999,"REV_AT_EPOCH":10607,"BSTAR":3.622421e-6,"MEAN_MOTION_DOT":-1.62e-6,"MEAN_MOTION_DDOT":0}]
